STARLINK-36728          
1 67927U 26036Z   26081.16668981 -.01912945  00000+0 -40811-1 0  9997
2 67927  42.9999 175.0983 0001406 278.7837 192.0555 15.47290090  5651
STARLINK-36771          
1 67928U 26036AA  26081.00002315 -.01931945  00000+0 -37840-1 0  9993
2 67928  43.0001 176.1907 0001070 253.7779 318.0757 15.49739616  5626
STARLINK-36809          
1 67929U 26036AB  26081.00002315 -.01918609  00000+0 -37382-1 0  9997
2 67929  43.0000 176.1676 0000930 257.6412 323.5087 15.49866238  5628
STARLINK-36865          
1 67930U 26036AC  26081.16668981 -.01857848  00000+0 -41594-1 0  9990
2 67930  42.9997 174.8872 0001332 272.5620 283.7663 15.45814235  5656
STARLINK-36781          
1 67931U 26036AD  26081.16668981 -.01922325  00000+0 -44112-1 0  9993
2 67931  42.9993 174.9445 0001439 275.5951 257.6395 15.45211975  5652
STARLINK-36301          
1 67932U 26037A   26081.16668981 -.01946304  00000+0 -22505-1 0  9990
2 67932  42.9993 122.4533 0001419 269.6800  92.2167 15.64234427  5113
STARLINK-36852          
1 67933U 26037B   26081.16668981  .00077896  00000+0  13237-2 0  9992
2 67933  42.9994 123.3924 0000831 251.8627  91.3245 15.50510380  5203
STARLINK-36861          
1 67934U 26037C   26081.16668981 -.01920561  00000+0 -26017-1 0  9991
2 67934  42.9995 122.6037 0001393 265.7790  35.5075 15.60172609  5201
STARLINK-36860          
1 67935U 26037D   26081.16668981 -.02200541  00000+0 -39122-1 0  9993
2 67935  42.9992 123.0040 0000863 260.4317 239.7427 15.52865515  5201
STARLINK-36848          
1 67936U 26037E   26081.16668981  .00061190  00000+0  10428-2 0  9994
2 67936  42.9991 123.1426 0001350 280.0327 163.5238 15.50521398  5201
STARLINK-36370          
1 67937U 26037F   26081.16668981 -.01827051  00000+0 -31596-1 0  9992
2 67937  42.9988 122.9396 0000913 271.2519 255.2843 15.53534744  5203
STARLINK-36371          
1 67938U 26037G   26081.16668981 -.01895195  00000+0 -28463-1 0  9996
2 67938  42.9988 122.6963 0001135 260.4589   3.5033 15.57438902  5203
STARLINK-36246          
1 67939U 26037H   26081.16668981 -.00190504  00000+0 -33103-2 0  9996
2 67939  42.9991 123.0674 0001412 279.3038 194.5509 15.50669247  5118
STARLINK-36907          
1 67940U 26037J   26081.16668981 -.01899060  00000+0 -23574-1 0  9992
2 67940  42.9994 122.4198 0001455 270.3520 104.5322 15.62367479  5200
STARLINK-36927          
1 67941U 26037K   26081.16668981 -.01914879  00000+0 -26542-1 0  9997
2 67941  42.9994 122.5244 0001359 263.5688  69.0103 15.59570126  5209
STARLINK-36914          
1 67942U 26037L   26081.16668981 -.01947955  00000+0 -20497-1 0  9992
2 67942  42.9995 122.2843 0001159 278.4287 151.0930 15.66569085  5201
